{
  "type": "FeatureCollection",
  "features": [
    {
      "type": "Feature",
      "properties": {
        "norad_id": 40069,
        "name": "METEOR-M 2",
        "group": "weather",
        "lat": -59.63863913199375,
        "lon": 140.09620282705336,
        "alt_km": 826.1157373925562,
        "timestamp": "2025-12-23T16:57:11.988020+00:00",
        "meta_object_name": "METEOR-M 2",
        "meta_object_id": "2014-037A",
        "meta_epoch": "2025-12-23T05:41:16.808640",
        "meta_mean_motion": 14.21390126,
        "meta_eccentricity": 0.00055128,
        "meta_inclination": 98.491,
        "meta_ra_of_asc_node": 334.4193,
        "meta_arg_of_pericenter": 176.5234,
        "meta_mean_anomaly": 183.5984,
        "meta_ephemeris_type": 0,
        "meta_classification_type": "U",
        "meta_norad_cat_id": 40069,
        "meta_element_set_no": 999,
        "meta_rev_at_epoch": 59432,
        "meta_bstar": 8.1142029e-05,
        "meta_mean_motion_dot": 1.35e-06,
        "meta_mean_motion_ddot": 0,
        "tle_line1": "1 40069U 14037A   25357.23700010  .00000135  00000+0  81142-4 0  9997",
        "tle_line2": "2 40069  98.4910 334.4193 0005512 176.5234 183.5984 14.21390126594320"
      },
      "geometry": {
        "type": "Point",
        "coordinates": [
          140.09620282705336,
          -59.63863913199375
        ]
      }
    },
    {
      "type": "Feature",
      "properties": {
        "norad_id": 40267,
        "name": "HIMAWARI-8",
        "group": "weather",
        "lat": -0.00519382937171557,
        "lon": 127.45269723054408,
        "alt_km": 35789.49100691913,
        "timestamp": "2025-12-23T16:57:11.988033+00:00",
        "meta_object_name": "HIMAWARI-8",
        "meta_object_id": "2014-060A",
        "meta_epoch": "2025-12-22T22:23:38.900832",
        "meta_mean_motion": 1.00272243,
        "meta_eccentricity": 8.188e-05,
        "meta_inclination": 0.0459,
        "meta_ra_of_asc_node": 217.6658,
        "meta_arg_of_pericenter": 87.3219,
        "meta_mean_anomaly": 263.3209,
        "meta_ephemeris_type": 0,
        "meta_classification_type": "U",
        "meta_norad_cat_id": 40267,
        "meta_element_set_no": 999,
        "meta_rev_at_epoch": 4099,
        "meta_bstar": 0,
        "meta_mean_motion_dot": -2.54e-06,
        "meta_mean_motion_ddot": 0,
        "tle_line1": "1 40267U 14060A   25356.93308913 -.00000254  00000+0  00000+0 0  9997",
        "tle_line2": "2 40267   0.0459 217.6658 0000818  87.3219 263.3209  1.00272243 40999"
      },
      "geometry": {
        "type": "Point",
        "coordinates": [
          127.45269723054408,
          -0.00519382937171557
        ]
      }
    },
    {
      "type": "Feature",
      "properties": {
        "norad_id": 40367,
        "name": "FENGYUN 2G",
        "group": "weather",
        "lat": 1.0075814112496533,
        "lon": 85.90014303239661,
        "alt_km": 35800.257494719954,
        "timestamp": "2025-12-23T16:57:11.988045+00:00",
        "meta_object_name": "FENGYUN 2G",
        "meta_object_id": "2014-090A",
        "meta_epoch": "2025-12-23T01:37:15.049920",
        "meta_mean_motion": 1.00260115,
        "meta_eccentricity": 0.00026484,
        "meta_inclination": 5.1926,
        "meta_ra_of_asc_node": 74.9794,
        "meta_arg_of_pericenter": 203.6037,
        "meta_mean_anomaly": 296.7693,
        "meta_ephemeris_type": 0,
        "meta_classification_type": "U",
        "meta_norad_cat_id": 40367,
        "meta_element_set_no": 999,
        "meta_rev_at_epoch": 4023,
        "meta_bstar": 0,
        "meta_mean_motion_dot": -2.79e-06,
        "meta_mean_motion_ddot": 0,
        "tle_line1": "1 40367U 14090A   25357.06753530 -.00000279  00000+0  00000+0 0  9992",
        "tle_line2": "2 40367   5.1926  74.9794 0002648 203.6037 296.7693  1.00260115 40233"
      },
      "geometry": {
        "type": "Point",
        "coordinates": [
          85.90014303239661,
          1.0075814112496533
        ]
      }
    },
    {
      "type": "Feature",
      "properties": {
        "norad_id": 40732,
        "name": "METEOSAT-11 (MSG-4)",
        "group": "weather",
        "lat": -2.6892648952722626,
        "lon": -4.00531363990521,
        "alt_km": 35789.35890189936,
        "timestamp": "2025-12-23T16:57:11.988057+00:00",
        "meta_object_name": "METEOSAT-11 (MSG-4)",
        "meta_object_id": "2015-034A",
        "meta_epoch": "2025-12-23T04:36:57.786336",
        "meta_mean_motion": 1.00270765,
        "meta_eccentricity": 7.628e-05,
        "meta_inclination": 2.7625,
        "meta_ra_of_asc_node": 71.9731,
        "meta_arg_of_pericenter": 137.0032,
        "meta_mean_anomaly": 321.4375,
        "meta_ephemeris_type": 0,
        "meta_classification_type": "U",
        "meta_norad_cat_id": 40732,
        "meta_element_set_no": 999,
        "meta_rev_at_epoch": 545,
        "meta_bstar": 0,
        "meta_mean_motion_dot": 8.1e-07,
        "meta_mean_motion_ddot": 0,
        "tle_line1": "1 40732U 15034A   25357.19233549  .00000081  00000+0  00000+0 0  9994",
        "tle_line2": "2 40732   2.7625  71.9731 0000762 137.0032 321.4375  1.00270765  5456"
      },
      "geometry": {
        "type": "Point",
        "coordinates": [
          -4.00531363990521,
          -2.6892648952722626
        ]
      }
    },
    {
      "type": "Feature",
      "properties": {
        "norad_id": 41105,
        "name": "ELEKTRO-L 2",
        "group": "weather",
        "lat": -6.16723790213226,
        "lon": -27.70707151947519,
        "alt_km": 35777.37990940091,
        "timestamp": "2025-12-23T16:57:11.988070+00:00",
        "meta_object_name": "ELEKTRO-L 2",
        "meta_object_id": "2015-074A",
        "meta_epoch": "2025-12-23T01:04:44.322816",
        "meta_mean_motion": 1.00272278,
        "meta_eccentricity": 0.00035203,
        "meta_inclination": 6.25,
        "meta_ra_of_asc_node": 72.7058,
        "meta_arg_of_pericenter": 208.6905,
        "meta_mean_anomaly": 172.1579,
        "meta_ephemeris_type": 0,
        "meta_classification_type": "U",
        "meta_norad_cat_id": 41105,
        "meta_element_set_no": 999,
        "meta_rev_at_epoch": 3674,
        "meta_bstar": 0,
        "meta_mean_motion_dot": -9.9e-07,
        "meta_mean_motion_ddot": 0,
        "tle_line1": "1 41105U 15074A   25357.04495744 -.00000099  00000+0  00000+0 0  9994",
        "tle_line2": "2 41105   6.2500  72.7058 0003520 208.6905 172.1579  1.00272278 36746"
      },
      "geometry": {
        "type": "Point",
        "coordinates": [
          -27.70707151947519,
          -6.16723790213226
        ]
      }
    },
    {
      "type": "Feature",
      "properties": {
        "norad_id": 41752,
        "name": "INSAT-3DR",
        "group": "weather",
        "lat": -0.03233286927005857,
        "lon": 60.85954292227254,
        "alt_km": 35837.75414170664,
        "timestamp": "2025-12-23T16:57:11.988083+00:00",
        "meta_object_name": "INSAT-3DR",
        "meta_object_id": "2016-054A",
        "meta_epoch": "2025-12-23T03:12:43.406208",
        "meta_mean_motion": 1.00271522,
        "meta_eccentricity": 0.00142068,
        "meta_inclination": 0.1164,
        "meta_ra_of_asc_node": 86.2341,
        "meta_arg_of_pericenter": 185.5355,
        "meta_mean_anomaly": 302.3292,
        "meta_ephemeris_type": 0,
        "meta_classification_type": "U",
        "meta_norad_cat_id": 41752,
        "meta_element_set_no": 999,
        "meta_rev_at_epoch": 3405,
        "meta_bstar": 0,
        "meta_mean_motion_dot": -5.6e-07,
        "meta_mean_motion_ddot": 0,
        "tle_line1": "1 41752U 16054A   25357.13383572 -.00000056  00000+0  00000+0 0  9999",
        "tle_line2": "2 41752   0.1164  86.2341 0014206 185.5355 302.3292  1.00271522 34055"
      },
      "geometry": {
        "type": "Point",
        "coordinates": [
          60.85954292227254,
          -0.03233286927005857
        ]
      }
    },
    {
      "type": "Feature",
      "properties": {
        "norad_id": 41836,
        "name": "HIMAWARI-9",
        "group": "weather",
        "lat": 0.03855305102139857,
        "lon": 127.56966529744868,
        "alt_km": 35791.71563038155,
        "timestamp": "2025-12-23T16:57:11.988095+00:00",
        "meta_object_name": "HIMAWARI-9",
        "meta_object_id": "2016-064A",
        "meta_epoch": "2025-12-22T18:58:13.571040",
        "meta_mean_motion": 1.00272669,
        "meta_eccentricity": 0.00014802,
        "meta_inclination": 0.0164,
        "meta_ra_of_asc_node": 29.9097,
        "meta_arg_of_pericenter": 299.5848,
        "meta_mean_anomaly": 187.4267,
        "meta_ephemeris_type": 0,
        "meta_classification_type": "U",
        "meta_norad_cat_id": 41836,
        "meta_element_set_no": 999,
        "meta_rev_at_epoch": 3344,
        "meta_bstar": 0,
        "meta_mean_motion_dot": 0,
        "meta_mean_motion_ddot": 0,
        "tle_line1": "1 41836U 16064A   25356.79043485  .00000000  00000+0  00000+0 0  9998",
        "tle_line2": "2 41836   0.0164  29.9097 0001480 299.5848 187.4267  1.00272669 33441"
      },
      "geometry": {
        "type": "Point",
        "coordinates": [
          127.56966529744868,
          0.03855305102139857
        ]
      }
    }
  ]
}